FLOCK 4G-2              
1 62661U 25009BE  26068.66207492  .00013752  00000+0  51068-3 0  9995
2 62661  97.4044 151.2221 0003181 329.2677  30.8376 15.27675260121321
STARLINK-36430          
1 67326U 26002X   26068.10100734  .00029345  00000+0  10714-2 0  9999
2 67326  43.0007 328.1775 0003426 244.1670 115.8829 15.27585781 11153
